ONEWEB-0136             
1 47282U 20100AA  24164.87516781 -.00008070  00000+0 -22474-1 0  9992
2 47282  87.8937 136.8474 0002225  73.9407 286.1966 13.12485805168348
ONEWEB-0137             
1 47283U 20100AB  24164.90923710 -.00003407  00000+0 -95062-2 0  9994
2 47283  87.8929 136.8666 0001856  84.9227 275.2113 13.12463831168252
ONEWEB-0139             
1 47285U 20100AD  24164.93760482  .00003449  00000+0  95502-2 0  9997
2 47285  87.8937 136.8469 0002140  83.5276 276.6097 13.12421421168413
ONEWEB-0140             
1 47286U 20100AE  24164.88166310 -.00007507  00000+0 -20906-1 0  9998
2 47286  87.8933 136.8593 0002018  81.5168 278.6189 13.12485515168373
ONEWEB-0141             
1 47287U 20100AF  24164.92708579  .00000197  00000+0  51352-3 0  9990
2 47287  87.8931 136.8620 0001896  88.7218 271.4128 13.12442703168366
ONEWEB-0142             
1 47288U 20100AG  24164.89544547 -.00005361  00000+0 -14940-1 0  9990
2 47288  87.8934 136.8491 0001786  77.8889 282.2439 13.12474217168356
